CZ-7A R/B               
1 66314U 25250B   25308.78056345  .04554797 -13031-4  51460-3 0  9993
2 66314  19.9260 116.0532 3555489 130.5060 266.3968  8.58954420   196
